      2.10          N: GNSS NAV DATA                        RINEX VERSION / TYPE
fic2rin                                 09/16/2020 00:17:39 PGM / RUN BY / DATE
                                                            END OF HEADER
18 20  9 15 22  0  0.0 2.908371388912e-04 6.934897101019e-12 0.000000000000e+00
    1.000000000000e+01 4.990625000000e+01 4.759126808163e-09 8.352969634370e-01
    2.635642886162e-06 1.020164228976e-03 1.544132828712e-06 5.153707969666e+03
    2.520000000000e+05 7.078051567078e-08 1.085933303698e+00-2.048909664154e-08
    9.648403094260e-01 3.514375000000e+02 2.740203335256e+00-8.528569534868e-09
    3.271564845236e-10 1.000000000000e+00 2.123000000000e+03 0.000000000000e+00
    2.400000000000e+00 0.000000000000e+00-8.381903171539e-09 5.220000000000e+02
    2.448000000000e+05 4.000000000000e+00
23 20  9 15 22  0  0.0 6.098393350840e-05 4.774847184308e-12 0.000000000000e+00
    5.100000000000e+01-1.227500000000e+02 4.673766109690e-09 6.210240384754e-01
   -6.383284926414e-06 1.011197688058e-03 6.390735507011e-06 5.153640647888e+03
    2.520000000000e+05-4.284083843231e-08 2.085480221034e+00 3.911554813385e-08
    9.614550453075e-01 2.559062500000e+02 1.842724475637e+00-8.305345950996e-09
   -3.410856361573e-10 1.000000000000e+00 2.123000000000e+03 0.000000000000e+00
    9.999999999999e+99 6.300000000000e+01-8.381903171539e-09 8.190000000000e+02
    2.448000000000e+05 4.000000000000e+00
 2 20  9 16  0  0  0.0-5.169664509594e-04-5.229594535194e-12 0.000000000000e+00
    7.400000000000e+01 8.362500000000e+01 4.731268504896e-09 1.682829058322e+00
    4.006549715996e-06 1.983229198959e-02 3.002583980560e-06 5.153774103165e+03
    2.592000000000e+05 9.313225746155e-08 9.917156096444e-01-4.582107067108e-07
    9.601861628306e-01 3.157187500000e+02-1.603873845223e+00-8.406421589773e-09
    4.203746531488e-10 1.000000000000e+00 2.123000000000e+03 0.000000000000e+00
    2.400000000000e+00 0.000000000000e+00-1.769512891769e-08 7.400000000000e+01
    2.520000000000e+05 4.000000000000e+00
 1 20  9 16  0  0  0.0 3.598723560572e-05-4.547473508865e-13 0.000000000000e+00
    3.800000000000e+01 6.731250000000e+01 4.433756112310e-09 1.450438517615e+00
    3.367662429810e-06 1.007955486421e-02 2.125278115273e-06 5.153695930481e+03
    2.592000000000e+05-1.676380634308e-07 1.070311097039e+00 1.490116119385e-08
    9.812242472884e-01 3.498437500000e+02 8.273175060320e-01-8.490353657309e-09
    2.564392531528e-10 1.000000000000e+00 2.123000000000e+03 0.000000000000e+00
    2.400000000000e+00 0.000000000000e+00 5.122274160385e-09 3.800000000000e+01
    2.520000000000e+05 4.000000000000e+00
 5 20  9 16  0  0  0.0-2.118945121765e-05-9.094947017729e-13 0.000000000000e+00
    7.400000000000e+01-1.271562500000e+02 4.784842165025e-09-1.929005223222e+00
   -6.757676601410e-06 6.123005878180e-03 4.697591066360e-06 5.153735464096e+03
    2.592000000000e+05 8.940696716309e-08 2.077120397613e+00-1.136213541031e-07
    9.535125046403e-01 2.788750000000e+02 8.681540274256e-01-8.337132989339e-09
   -2.646538810393e-10 1.000000000000e+00 2.123000000000e+03 0.000000000000e+00
    2.400000000000e+00 0.000000000000e+00-1.117587089539e-08 7.400000000000e+01
    2.520000000000e+05 4.000000000000e+00
 3 20  9 16  0  0  0.0-3.001801669598e-04-1.068656274583e-11 0.000000000000e+00
    9.600000000000e+01-1.316250000000e+02 4.526974280935e-09 3.022684802498e-01
   -6.966292858124e-06 3.240291145630e-03 6.519258022308e-06 5.153750541687e+03
    2.592000000000e+05 1.862645149231e-09 2.110542107019e+00 1.024454832077e-07
    9.666194708952e-01 2.605000000000e+02 8.633677500694e-01-8.292845430299e-09
   -3.843017219950e-10 1.000000000000e+00 2.123000000000e+03 0.000000000000e+00
    2.400000000000e+00 0.000000000000e+00 1.862645149231e-09 9.600000000000e+01
    2.520000000000e+05 4.000000000000e+00
 7 20  9 16  0  0  0.0-3.733392804861e-04-8.185452315956e-12 0.000000000000e+00
    4.800000000000e+01 3.993750000000e+01 5.421297247362e-09 7.544895614615e-01
    2.304092049599e-06 1.421419554390e-02 5.137175321579e-06 5.153633069992e+03
    2.592000000000e+05-8.009374141693e-08-2.068856737650e+00 1.173466444016e-07
    9.524590061293e-01 2.769375000000e+02-2.364753977061e+00-8.737149651639e-09
    1.882221259213e-10 1.000000000000e+00 2.123000000000e+03 0.000000000000e+00
    2.400000000000e+00 0.000000000000e+00-1.117587089539e-08 4.800000000000e+01
    2.520000000000e+05 4.000000000000e+00
 4 20  9 16  0  0  0.0-1.363400369883e-04-4.092726157978e-12 0.000000000000e+00
    8.900000000000e+01-1.034375000000e+01 4.399111812093e-09 2.911851308306e+00
   -3.855675458908e-07 8.099826518446e-04 1.396425068378e-05 5.153637750626e+03
    2.592000000000e+05-5.587935447693e-09-3.093444735350e+00 2.793967723846e-08
    9.606496679432e-01 1.117500000000e+02-2.861403162047e+00-7.817825643818e-09
    5.175215568501e-10 1.000000000000e+00 2.123000000000e+03 0.000000000000e+00
    2.400000000000e+00 0.000000000000e+00-4.190951585770e-09 6.010000000000e+02
    2.520000000000e+05 4.000000000000e+00
16 20  9 16  0  0  0.0-2.096355892718e-04-5.115907697473e-12 0.000000000000e+00
    3.000000000000e+01-3.884375000000e+01 4.204460846956e-09-1.798954409969e+00
   -2.065673470497e-06 1.155458355788e-02 9.253621101379e-06 5.153567384720e+03
    2.592000000000e+05 1.452863216400e-07-9.417846180924e-01-8.568167686462e-08
    9.768740892183e-01 2.090000000000e+02 6.293968028689e-01-7.739250942295e-09
   -6.271689812483e-10 1.000000000000e+00 2.123000000000e+03 0.000000000000e+00
    2.400000000000e+00 0.000000000000e+00-1.071020960808e-08 3.000000000000e+01
    2.520000000000e+05 4.000000000000e+00
15 20  9 16  0  0  0.0-2.034087665379e-04 2.614797267597e-12 0.000000000000e+00
    2.400000000000e+01-4.300000000000e+01 4.940920094869e-09 2.745023604977e+00
   -2.235174179077e-06 1.277059060521e-02 1.334026455879e-05 5.153758649826e+03
    2.592000000000e+05 2.421438694000e-08 3.048620941493e+00-2.030283212662e-07
    9.289788681330e-01 1.060937500000e+02 9.177799903176e-01-7.903543500025e-09
    2.921550265724e-10 1.000000000000e+00 2.123000000000e+03 0.000000000000e+00
    2.400000000000e+00 0.000000000000e+00-1.071020960808e-08 2.400000000000e+01
    2.520000000000e+05 4.000000000000e+00
13 20  9 16  0  0  0.0 4.565203562379e-05 3.637978807092e-12 0.000000000000e+00
    2.100000000000e+01-5.500000000000e+00 4.196246219070e-09 2.966527861278e+00
   -3.390014171600e-07 4.515430540778e-03 1.301802694798e-05 5.153695905685e+03
    2.592000000000e+05 2.421438694000e-08-2.997669786945e+00-1.080334186554e-07
    9.684349288248e-01 1.339375000000e+02 1.045500231704e+00-7.657818978898e-09
    4.882346226460e-10 1.000000000000e+00 2.123000000000e+03 0.000000000000e+00
    2.400000000000e+00 0.000000000000e+00-1.117587089539e-08 2.100000000000e+01
    2.520000000000e+05 4.000000000000e+00
10 20  9 16  0  0  0.0-4.556234925985e-04-9.890754881781e-12 0.000000000000e+00
    6.700000000000e+01-1.208750000000e+02 4.527688596404e-09-5.545797007906e-01
   -6.223097443581e-06 5.875441129319e-03 6.413087248802e-06 5.153669895172e+03
    2.592000000000e+05 5.215406417847e-08 2.107548667953e+00 1.005828380585e-07
    9.665431694769e-01 2.571875000000e+02-2.659463561058e+00-8.282130698273e-09
   -3.275136422578e-10 1.000000000000e+00 2.123000000000e+03 0.000000000000e+00
    2.400000000000e+00 0.000000000000e+00 2.328306436539e-09 6.700000000000e+01
    2.520000000000e+05 4.000000000000e+00
 9 20  9 16  0  0  0.0-2.865931019187e-04-5.570655048359e-12 0.000000000000e+00
    8.400000000000e+01-2.525000000000e+01 4.508044921023e-09-2.238284132718e+00
   -1.164153218269e-06 1.765929628164e-03 1.353956758976e-05 5.153663492203e+03
    2.592000000000e+05 2.048909664154e-08 3.140970714449e+00 5.774199962616e-08
    9.534150055390e-01 1.144687500000e+02 1.753537148284e+00-7.884614140113e-09
    4.718053668730e-10 1.000000000000e+00 2.123000000000e+03 0.000000000000e+00
    2.400000000000e+00 0.000000000000e+00 1.396983861923e-09 8.400000000000e+01
    2.520000000000e+05 4.000000000000e+00
 6 20  9 16  0  0  0.0-3.259740769863e-04-3.296918293927e-12 0.000000000000e+00
    1.610000000000e+02 7.396875000000e+01 4.292321649569e-09 1.808397591521e+00
    3.878027200699e-06 1.789519330487e-03 2.449378371239e-06 5.153612001419e+03
    2.592000000000e+05-7.450580596924e-09 1.062059668534e+00-5.587935447693e-09
    9.807613639161e-01 3.407187500000e+02-1.124698853890e+00-8.308203212869e-09
    3.793015137162e-10 1.000000000000e+00 2.123000000000e+03 0.000000000000e+00
    3.400000000000e+00 0.000000000000e+00 4.190951585770e-09 1.610000000000e+02
    2.520000000000e+05 4.000000000000e+00
 8 20  9 16  0  0  0.0-4.811119288206e-05-1.364242052659e-12 0.000000000000e+00
    8.300000000000e+01 1.066250000000e+02 3.833016803392e-09-2.522977810050e+00
    5.435198545456e-06 5.470520467497e-03 1.278333365917e-05 5.153730800629e+03
    2.592000000000e+05-2.607703208923e-08-5.134052482465e-04 1.117587089539e-08
    9.694741302375e-01 1.389062500000e+02-6.519558788650e-02-7.711392639028e-09
    6.643133856047e-11 1.000000000000e+00 2.123000000000e+03 0.000000000000e+00
    3.400000000000e+00 0.000000000000e+00 5.122274160385e-09 8.300000000000e+01
    2.520000000000e+05 4.000000000000e+00
11 20  9 16  0  0  0.0-1.632585190237e-04 1.057287590811e-11 0.000000000000e+00
    6.200000000000e+01 1.288437500000e+02 5.693094283086e-09 9.190617362332e-01
    6.450340151787e-06 1.593105727807e-02 5.936250090599e-06 5.153719947815e+03
    2.592000000000e+05 7.264316082001e-08 5.885145813774e-01-3.725290298462e-07
    9.135314450744e-01 2.388125000000e+02 2.043813629681e+00-9.032161940085e-09
    4.507330605555e-10 1.000000000000e+00 2.123000000000e+03 0.000000000000e+00
    2.400000000000e+00 0.000000000000e+00-1.210719347000e-08 6.200000000000e+01
    2.520000000000e+05 4.000000000000e+00
